start=new Date('2021-11-20T00:00:00.000Z').valueOf();
sats=[{"PERIAPSIS":"545.910","TLE_LINE2":"2 47566  53.0551 216.3304 0001911  67.2936 292.8255 15.06393603 44820","DECAY_DATE":null,"RCS_SIZE":"LARGE","ECCENTRICITY":"0.00019110","PERIOD":"95.593","GP_ID":"190045727","MEAN_MOTION":"15.06393603","MEAN_ELEMENT_THEORY":"SGP4","REF_FRAME":"TEME","OBJECT_TYPE":"PAYLOAD","EPOCH":"2021-11-19T04:39:33.412608","MEAN_MOTION_DDOT":"0.0000000000000","TIME_SYSTEM":"UTC","ELEMENT_SET_NO":"999","NORAD_CAT_ID":"47566","SEMIMAJOR_AXIS":"6925.368","MEAN_MOTION_DOT":"-0.00002512","RA_OF_ASC_NODE":"216.3304","CLASSIFICATION_TYPE":"U","APOAPSIS":"548.557","OBJECT_NAME":"STARLINK-1965","EPHEMERIS_TYPE":"0","BSTAR":"-0.00014982000000","LAUNCH_DATE":"2021-02-04","MEAN_ANOMALY":"292.8255","COUNTRY_CODE":"US","ARG_OF_PERICENTER":"67.2936","OBJECT_ID":"2021-009U","FILE":"3218888","REV_AT_EPOCH":"4482","TLE_LINE1":"1 47566U 21009U   21323.19413672 -.00002512  00000-0 -14982-3 0  9993","SITE":"AFETR","INCLINATION":"53.0551","CENTER_NAME":"EARTH"},{"CENTER_NAME":"EARTH","INCLINATION":"53.0549","SITE":"AFETR","TLE_LINE1":"1 47567U 21009V   21323.29733816  .00001794  00000-0  13932-3 0  9993","REV_AT_EPOCH":"4366","FILE":"3219209","OBJECT_ID":"2021-009V","ARG_OF_PERICENTER":"64.0063","COUNTRY_CODE":"US","LAUNCH_DATE":"2021-02-04","MEAN_ANOMALY":"296.1118","EPHEMERIS_TYPE":"0","BSTAR":"0.00013932000000","OBJECT_NAME":"STARLINK-1966","APOAPSIS":"548.505","CLASSIFICATION_TYPE":"U","RA_OF_ASC_NODE":"255.8754","MEAN_MOTION_DOT":"0.00001794","NORAD_CAT_ID":"47567","SEMIMAJOR_AXIS":"6925.344","ELEMENT_SET_NO":"999","TIME_SYSTEM":"UTC","MEAN_MOTION_DDOT":"0.0000000000000","EPOCH":"2021-11-19T07:08:10.017024","OBJECT_TYPE":"PAYLOAD","MEAN_MOTION":"15.06401403","MEAN_ELEMENT_THEORY":"SGP4","REF_FRAME":"TEME","GP_ID":"190075641","PERIOD":"95.592","ECCENTRICITY":"0.00018710","RCS_SIZE":"LARGE","DECAY_DATE":null,"PERIAPSIS":"545.914","TLE_LINE2":"2 47567  53.0549 255.8754 0001871  64.0063 296.1118 15.06401403 43660"},{"ECCENTRICITY":"0.00017440","PERIOD":"95.593","GP_ID":"190075392","OBJECT_TYPE":"PAYLOAD","MEAN_MOTION":"15.06392608","REF_FRAME":"TEME","MEAN_ELEMENT_THEORY":"SGP4","MEAN_MOTION_DDOT":"0.0000000000000","EPOCH":"2021-11-19T07:45:19.624320","TLE_LINE2":"2 47568  53.0544 255.7617 0001744  70.0054 290.1123 15.06392608 43676","PERIAPSIS":"546.028","DECAY_DATE":null,"RCS_SIZE":"LARGE","COUNTRY_CODE":"US","LAUNCH_DATE":"2021-02-04","MEAN_ANOMALY":"290.1123","BSTAR":"0.00002855300000","EPHEMERIS_TYPE":"0","OBJECT_ID":"2021-009W","ARG_OF_PERICENTER":"70.0054","REV_AT_EPOCH":"4367","FILE":"3219209","SITE":"AFETR","TLE_LINE1":"1 47568U 21009W   21323.32314380  .00000144  00000-0  28553-4 0  9993","INCLINATION":"53.0544","CENTER_NAME":"EARTH","ELEMENT_SET_NO":"999","TIME_SYSTEM":"UTC","SEMIMAJOR_AXIS":"6925.371","NORAD_CAT_ID":"47568","RA_OF_ASC_NODE":"255.7617","MEAN_MOTION_DOT":"0.00000144","APOAPSIS":"548.444","CLASSIFICATION_TYPE":"U","OBJECT_NAME":"STARLINK-1967"},{"PERIOD":"93.394","GP_ID":"190074139","OBJECT_TYPE":"PAYLOAD","MEAN_MOTION":"15.41857300","MEAN_ELEMENT_THEORY":"SGP4","REF_FRAME":"TEME","MEAN_MOTION_DDOT":"0.0000000000000","EPOCH":"2021-11-19T10:45:25.586784","ECCENTRICITY":"0.00027260","DECAY_DATE":null,"RCS_SIZE":"LARGE","PERIAPSIS":"438.771","TLE_LINE2":"2 47569  53.0505 227.0207 0002726  56.1752 303.9512 15.41857300 44098","SITE":"AFETR","TLE_LINE1":"1 47569U 21009X   21323.44821281  .00926176  00000-0  19695-1 0  9996","INCLINATION":"53.0505","CENTER_NAME":"EARTH","LAUNCH_DATE":"2021-02-04","COUNTRY_CODE":"US","MEAN_ANOMALY":"303.9512","BSTAR":"0.01969500000000","EPHEMERIS_TYPE":"0","OBJECT_ID":"2021-009X","ARG_OF_PERICENTER":"56.1752","REV_AT_EPOCH":"4409","FILE":"3219209","RA_OF_ASC_NODE":"227.0207","MEAN_MOTION_DOT":"0.00926176","APOAPSIS":"442.489","CLASSIFICATION_TYPE":"U","OBJECT_NAME":"STARLINK-1968","ELEMENT_SET_NO":"999","TIME_SYSTEM":"UTC","SEMIMAJOR_AXIS":"6818.765","NORAD_CAT_ID":"47569"},{"OBJECT_NAME":"STARLINK-1969","APOAPSIS":"548.544","CLASSIFICATION_TYPE":"U","MEAN_MOTION_DOT":"0.00000024","RA_OF_ASC_NODE":"216.3911","SEMIMAJOR_AXIS":"6925.357","NORAD_CAT_ID":"47570","TIME_SYSTEM":"UTC","ELEMENT_SET_NO":"999","CENTER_NAME":"EARTH","INCLINATION":"53.0535","TLE_LINE1":"1 47570U 21009Y   21323.18307389  .00000024  00000-0  20508-4 0  9990","SITE":"AFETR","FILE":"3218888","REV_AT_EPOCH":"4482","ARG_OF_PERICENTER":"72.4552","OBJECT_ID":"2021-009Y","EPHEMERIS_TYPE":"0","BSTAR":"0.00002050800000","LAUNCH_DATE":"2021-02-04","COUNTRY_CODE":"US","MEAN_ANOMALY":"287.6646","RCS_SIZE":"LARGE","DECAY_DATE":null,"PERIAPSIS":"545.900","TLE_LINE2":"2 47570  53.0535 216.3911 0001909  72.4552 287.6646 15.06397204 44827","EPOCH":"2021-11-19T04:23:37.584096","MEAN_MOTION_DDOT":"0.0000000000000","REF_FRAME":"TEME","MEAN_MOTION":"15.06397204","MEAN_ELEMENT_THEORY":"SGP4","OBJECT_TYPE":"PAYLOAD","GP_ID":"190045439","PERIOD":"95.592","ECCENTRICITY":"0.00019090"},{"PERIOD":"95.593","GP_ID":"190075142","OBJECT_TYPE":"PAYLOAD","MEAN_MOTION":"15.06392849","REF_FRAME":"TEME","MEAN_ELEMENT_THEORY":"SGP4","MEAN_MOTION_DDOT":"0.0000000000000","EPOCH":"2021-11-19T11:00:22.800672","ECCENTRICITY":"0.00012370","DECAY_DATE":null,"RCS_SIZE":"LARGE","TLE_LINE2":"2 47571  53.0568 225.1524 0001237  58.4351 301.6759 15.06392849 44111","PERIAPSIS":"546.379","SITE":"AFETR","TLE_LINE1":"1 47571U 21009Z   21323.45859723  .00000438  00000-0  48268-4 0  9997","INCLINATION":"53.0568","CENTER_NAME":"EARTH","LAUNCH_DATE":"2021-02-04","COUNTRY_CODE":"US","MEAN_ANOMALY":"301.6759","BSTAR":"0.00004826800000","EPHEMERIS_TYPE":"0","OBJECT_ID":"2021-009Z","ARG_OF_PERICENTER":"58.4351","REV_AT_EPOCH":"4411","FILE":"3219209","RA_OF_ASC_NODE":"225.1524","MEAN_MOTION_DOT":"0.00000438","APOAPSIS":"548.092","CLASSIFICATION_TYPE":"U","OBJECT_NAME":"STARLINK-1970","ELEMENT_SET_NO":"999","TIME_SYSTEM":"UTC","NORAD_CAT_ID":"47571","SEMIMAJOR_AXIS":"6925.370"},{"GP_ID":"190075892","PERIOD":"95.593","EPOCH":"2021-11-19T10:33:51.214176","MEAN_MOTION_DDOT":"0.0000000000000","REF_FRAME":"TEME","MEAN_MOTION":"15.06385919","MEAN_ELEMENT_THEORY":"SGP4","OBJECT_TYPE":"PAYLOAD","ECCENTRICITY":"0.00018310","DECAY_DATE":null,"RCS_SIZE":"LARGE","PERIAPSIS":"545.989","TLE_LINE2":"2 47572  53.0551 225.2175 0001831  68.7925 291.3260 15.06385919 44110","INCLINATION":"53.0551","TLE_LINE1":"1 47572U 21009AA  21323.44017609  .00000033  00000-0  21109-4 0  9992","SITE":"AFETR","CENTER_NAME":"EARTH","BSTAR":"0.00002110900000","EPHEMERIS_TYPE":"0","MEAN_ANOMALY":"291.3260","LAUNCH_DATE":"2021-02-04","COUNTRY_CODE":"US","FILE":"3219209","REV_AT_EPOCH":"4411","ARG_OF_PERICENTER":"68.7925","OBJECT_ID":"2021-009AA","MEAN_MOTION_DOT":"0.00000033","RA_OF_ASC_NODE":"225.2175","OBJECT_NAME":"STARLINK-1971","APOAPSIS":"548.525","CLASSIFICATION_TYPE":"U","TIME_SYSTEM":"UTC","ELEMENT_SET_NO":"999","SEMIMAJOR_AXIS":"6925.392","NORAD_CAT_ID":"47572"},{"RCS_SIZE":"LARGE","DECAY_DATE":null,"PERIAPSIS":"545.997","TLE_LINE2":"2 47573  53.0525 227.1058 0001779  66.8142 293.3034 15.06394920 44049","EPOCH":"2021-11-19T00:28:45.426144","MEAN_MOTION_DDOT":"0.0000000000000","MEAN_ELEMENT_THEORY":"SGP4","MEAN_MOTION":"15.06394920","REF_FRAME":"TEME","OBJECT_TYPE":"PAYLOAD","GP_ID":"190074639","PERIOD":"95.592","ECCENTRICITY":"0.00017790","OBJECT_NAME":"STARLINK-1975","CLASSIFICATION_TYPE":"U","APOAPSIS":"548.461","MEAN_MOTION_DOT":"-0.00001291","RA_OF_ASC_NODE":"227.1058","NORAD_CAT_ID":"47573","SEMIMAJOR_AXIS":"6925.364","TIME_SYSTEM":"UTC","ELEMENT_SET_NO":"999","CENTER_NAME":"EARTH","INCLINATION":"53.0525","TLE_LINE1":"1 47573U 21009AB  21323.01997021 -.00001291  00000-0 -67788-4 0  9993","SITE":"AFETR","FILE":"3219209","REV_AT_EPOCH":"4404","ARG_OF_PERICENTER":"66.8142","OBJECT_ID":"2021-009AB","EPHEMERIS_TYPE":"0","BSTAR":"-0.00006778800000","LAUNCH_DATE":"2021-02-04","COUNTRY_CODE":"US","MEAN_ANOMALY":"293.3034"},{"CENTER_NAME":"EARTH","INCLINATION":"53.0559","TLE_LINE1":"1 47574U 21009AC  21323.23467105  .00000187  00000-0  31436-4 0  9995","SITE":"AFETR","FILE":"3218888","REV_AT_EPOCH":"4425","ARG_OF_PERICENTER":"63.8566","OBJECT_ID":"2021-009AC","BSTAR":"0.00003143600000","EPHEMERIS_TYPE":"0","LAUNCH_DATE":"2021-02-04","COUNTRY_CODE":"US","MEAN_ANOMALY":"296.2611","OBJECT_NAME":"STARLINK-1976","CLASSIFICATION_TYPE":"U","APOAPSIS":"548.476","MEAN_MOTION_DOT":"0.00000187","RA_OF_ASC_NODE":"256.1461","SEMIMAJOR_AXIS":"6925.341","NORAD_CAT_ID":"47574","TIME_SYSTEM":"UTC","ELEMENT_SET_NO":"999","EPOCH":"2021-11-19T05:37:55.578720","MEAN_MOTION_DDOT":"0.0000000000000","REF_FRAME":"TEME","MEAN_MOTION":"15.06402564","MEAN_ELEMENT_THEORY":"SGP4","OBJECT_TYPE":"PAYLOAD","GP_ID":"190045451","PERIOD":"95.592","ECCENTRICITY":"0.00018340","RCS_SIZE":"LARGE","DECAY_DATE":null,"TLE_LINE2":"2 47574  53.0559 256.1461 0001834  63.8566 296.2611 15.06402564 44256","PERIAPSIS":"545.936"},{"CENTER_NAME":"EARTH","INCLINATION":"53.0546","TLE_LINE1":"1 47575U 21009AD  21323.28996591 -.00001147  00000-0 -58103-4 0  9996","SITE":"AFETR","FILE":"3219209","REV_AT_EPOCH":"4366","ARG_OF_PERICENTER":"68.0216","OBJECT_ID":"2021-009AD","BSTAR":"-0.00005810300000","EPHEMERIS_TYPE":"0","LAUNCH_DATE":"2021-02-04","MEAN_ANOMALY":"292.0974","COUNTRY_CODE":"US","OBJECT_NAME":"STARLINK-1977","CLASSIFICATION_TYPE":"U","APOAPSIS":"548.549","MEAN_MOTION_DOT":"-0.00001147","RA_OF_ASC_NODE":"255.9008","NORAD_CAT_ID":"47575","SEMIMAJOR_AXIS":"6925.375","TIME_SYSTEM":"UTC","ELEMENT_SET_NO":"999","EPOCH":"2021-11-19T06:57:33.054624","MEAN_MOTION_DDOT":"0.0000000000000","MEAN_MOTION":"15.06391461","REF_FRAME":"TEME","MEAN_ELEMENT_THEORY":"SGP4","OBJECT_TYPE":"PAYLOAD","GP_ID":"190075642","PERIOD":"95.593","ECCENTRICITY":"0.00018900","RCS_SIZE":"LARGE","DECAY_DATE":null,"PERIAPSIS":"545.931","TLE_LINE2":"2 47575  53.0546 255.9008 0001890  68.0216 292.0974 15.06391461 43661"}];
